         0.0000000       15.4903130     6797.6976246        0.0001629       51.6439000      308.6754000      145.5065000       51.6439000
      1440.0000000       15.4903421     6797.6891034        0.0001629       51.6439000      125.8058318      140.5565624       51.6439000
      2880.0000000       15.4903713     6797.6805814        0.0001629       51.6439000      302.9368969      135.6066031       51.6439000
      4320.0000000       15.4904004     6797.6720586        0.0001628       51.6439000      120.0876063      130.6566220       51.6439000
      5760.0000000       15.4904295     6797.6635349        0.0001628       51.6439000      297.2403654      125.7066193       51.6439000
      7200.0000000       15.4904587     6797.6550103        0.0001628       51.6439000      114.4113126      120.7565949       51.6439000
      8640.0000000       15.4904878     6797.6464849        0.0001628       51.6439000      291.5858102      115.8065487       51.6439000
     10080.0000000       15.4905170     6797.6379587        0.0001627       51.6439000      108.7769629      110.8564809       51.6439000
     11520.0000000       15.4905461     6797.6294316        0.0001627       51.6439000      285.9732362      105.9063913       51.6439000
     12960.0000000       15.4905753     6797.6209036        0.0001627       51.6439000      103.1845697      100.9562801       51.6439000
     14400.0000000       15.4906044     6797.6123749        0.0001627       51.6439000      280.4026479       96.0061471       51.6439000
     15840.0000000       15.4906336     6797.6038452        0.0001627       51.6439000       97.6341456       91.0559924       51.6439000
     17280.0000000       15.4906627     6797.5953148        0.0001627       51.6439000      274.8740498       86.1058161       51.6439000
     18720.0000000       15.4906919     6797.5867834        0.0001626       51.6439000       92.1257035       81.1556180       51.6439000
     20160.0000000       15.4907211     6797.5782513        0.0001626       51.6439000      269.3874461       76.2053982       51.6439000
     21600.0000000       15.4907502     6797.5697182        0.0001626       51.6439000       86.6592560       71.2551567       51.6439000
     23040.0000000       15.4907794     6797.5611844        0.0001626       51.6439000      263.9428414       66.3048935       51.6439000
     24480.0000000       15.4908086     6797.5526497        0.0001626       51.6439000       81.2348160       61.3546086       51.6439000
     25920.0000000       15.4908377     6797.5441141        0.0001626       51.6439000      258.5402401       56.4043021       51.6439000
     27360.0000000       15.4908669     6797.5355777        0.0001625       51.6439000       75.8523963       51.4539738       51.6439000
     28800.0000000       15.4908961     6797.5270404        0.0001625       51.6439000      253.1796466       46.5036237       51.6439000
     30240.0000000       15.4909253     6797.5185023        0.0001625       51.6439000       70.5120098       41.5532520       51.6439000
     31680.0000000       15.4909545     6797.5099634        0.0001625       51.6439000      247.8610654       36.6028586       51.6439000
     33120.0000000       15.4909837     6797.5014236        0.0001624       51.6439000       65.2136689       31.6524435       51.6439000
     34560.0000000       15.4910129     6797.4928829        0.0001624       51.6439000      242.5845014       26.7020067       51.6439000
     36000.0000000       15.4910421     6797.4843414        0.0001624       51.6439000       59.9573863       21.7515481       51.6439000
     37440.0000000       15.4910713     6797.4757991        0.0001624       51.6439000      237.3499595       16.8010679       51.6439000
     38880.0000000       15.4911005     6797.4672559        0.0001624       51.6439000       54.7431743       11.8505660       51.6439000
     40320.0000000       15.4911297     6797.4587118        0.0001624       51.6439000      232.1574447        6.9000423       51.6439000
     41760.0000000       15.4911589     6797.4501669        0.0001623       51.6439000       49.5710449        1.9494970       51.6439000
     42544.3522320       15.4911748     6797.4455122        0.0001623       51.6439000      207.5415328      359.2529800       51.6439000


 1 25544U 98067A   20355.85791660 +.00001128  00000 0  28428-4 0 0999                                                                                                                                                                                                                                                                                                                                                                                                                                                            
 2 25544  51.6443 144.8215 0001564 146.1084   5.5825 15.4920448626095                                                                                                                                                                                                                                                                                                                                                                                                                                                            

         0.0000000       15.4903258     6797.6938850        0.0001564       51.6443000        5.5825000      144.8215000       51.6443000
      1440.0000000       15.4903574     6797.6846370        0.0001564       51.6443000      182.7212650      139.8715960       51.6443000
      2880.0000000       15.4903890     6797.6753881        0.0001564       51.6443000      359.8523956      134.9216684       51.6443000
      4320.0000000       15.4904206     6797.6661382        0.0001563       51.6443000      177.0139446      129.9717172       51.6443000
      5760.0000000       15.4904523     6797.6568872        0.0001563       51.6443000      354.1678664      125.0217425       51.6443000
      7200.0000000       15.4904839     6797.6476353        0.0001563       51.6443000      171.3521092      120.0717442       51.6443000
      8640.0000000       15.4905155     6797.6383824        0.0001563       51.6443000      348.5289220      115.1217224       51.6443000
     10080.0000000       15.4905471     6797.6291284        0.0001563       51.6443000      165.7357696      110.1716771       51.6443000
     11520.0000000       15.4905788     6797.6198735        0.0001562       51.6443000      342.9355719      105.2216081       51.6443000
     12960.0000000       15.4906104     6797.6106176        0.0001562       51.6443000      160.1649367      100.2715157       51.6443000
     14400.0000000       15.4906421     6797.6013607        0.0001562       51.6443000      337.3878250       95.3213996       51.6443000
     15840.0000000       15.4906737     6797.5921028        0.0001562       51.6443000      154.6396221       90.3712600       51.6443000
     17280.0000000       15.4907054     6797.5828438        0.0001562       51.6443000      331.8856898       85.4210969       51.6443000
     18720.0000000       15.4907370     6797.5735839        0.0001561       51.6443000      149.1598377       80.4709102       51.6443000
     20160.0000000       15.4907687     6797.5643230        0.0001561       51.6443000      326.4291743       75.5206999       51.6443000
     21600.0000000       15.4908003     6797.5550611        0.0001561       51.6443000      143.7255959       70.5704661       51.6443000
     23040.0000000       15.4908320     6797.5457982        0.0001561       51.6443000      321.0182860       65.6202087       51.6443000
     24480.0000000       15.4908637     6797.5365343        0.0001560       51.6443000      138.3369095       60.6699278       51.6443000
     25920.0000000       15.4908953     6797.5272694        0.0001560       51.6443000      315.6530323       55.7196233       51.6443000
     27360.0000000       15.4909270     6797.5180035        0.0001560       51.6443000      132.9937916       50.7692953       51.6443000
     28800.0000000       15.4909587     6797.5087366        0.0001560       51.6443000      310.3334198       45.8189437       51.6443000
     30240.0000000       15.4909904     6797.4994687        0.0001560       51.6443000      127.6962557       40.8685685       51.6443000
     31680.0000000       15.4910220     6797.4901998        0.0001560       51.6443000      305.0594552       35.9181698       51.6443000
     33120.0000000       15.4910537     6797.4809299        0.0001559       51.6443000      122.4443157       30.9677476       51.6443000
     34560.0000000       15.4910854     6797.4716590        0.0001559       51.6443000      299.8311446       26.0173017       51.6443000
     36000.0000000       15.4911171     6797.4623870        0.0001559       51.6443000      117.2379857       21.0668324       51.6443000
     37440.0000000       15.4911488     6797.4531141        0.0001559       51.6443000      294.6484941       16.1163394       51.6443000
     38880.0000000       15.4911805     6797.4438402        0.0001558       51.6443000      112.0772799       11.1658230       51.6443000
     40320.0000000       15.4912122     6797.4345653        0.0001558       51.6443000      289.5115095        6.2152829       51.6443000
     41760.0000000       15.4912439     6797.4252894        0.0001558       51.6443000      106.9622130        1.2647193       51.6443000
     42344.8620480       15.4912568     6797.4215217        0.0001558       51.6443000      212.2727367      359.2540204       51.6443000

